<?xml version="1.0" encoding="UTF-8"?>
<gpx creator="https://gpx.studio" version="1.1" xmlns="http://www.topografix.com/GPX/1/1" xmlns:xsi="http://www.w3.org/2001/XMLSchema-instance" xsi:schemaLocation="http://www.topografix.com/GPX/1/1 http://www.topografix.com/GPX/1/1/gpx.xsd http://www.garmin.com/xmlschemas/GpxExtensions/v3 http://www.garmin.com/xmlschemas/GpxExtensionsv3.xsd http://www.garmin.com/xmlschemas/TrackPointExtension/v1 http://www.garmin.com/xmlschemas/TrackPointExtensionv1.xsd http://www.garmin.com/xmlschemas/PowerExtension/v1 http://www.garmin.com/xmlschemas/PowerExtensionv1.xsd http://www.topografix.com/GPX/gpx_style/0/2 http://www.topografix.com/GPX/gpx_style/0/2/gpx_style.xsd" xmlns:gpxtpx="http://www.garmin.com/xmlschemas/TrackPointExtension/v1" xmlns:gpxx="http://www.garmin.com/xmlschemas/GpxExtensions/v3" xmlns:gpxpx="http://www.garmin.com/xmlschemas/PowerExtension/v1" xmlns:gpx_style="http://www.topografix.com/GPX/gpx_style/0/2">
  <metadata>
    <name>大雁塔-钟楼</name>
    <author>
      <name>gpx.studio</name>
      <link href="https://gpx.studio"/>
    </author>
  </metadata>
  <trk>
    <name>大雁塔-钟楼</name>
    <trkseg>
      <trkpt lat="34.21967" lon="108.959426">
        <ele>430</ele>
        <time>2026-01-01T13:04:51.000Z</time>
      </trkpt>
      <trkpt lat="34.21954" lon="108.959426">
        <ele>430</ele>
        <time>2026-01-01T13:04:56.274Z</time>
      </trkpt>
      <trkpt lat="34.21954" lon="108.959769">
        <ele>430</ele>
        <time>2026-01-01T13:05:07.781Z</time>
      </trkpt>
      <trkpt lat="34.219905" lon="108.959769">
        <ele>429.75</ele>
        <time>2026-01-01T13:05:22.376Z</time>
      </trkpt>
      <trkpt lat="34.220149" lon="108.959769">
        <ele>430</ele>
        <time>2026-01-01T13:05:32.276Z</time>
      </trkpt>
      <trkpt lat="34.220149" lon="108.959886">
        <ele>430</ele>
        <time>2026-01-01T13:05:36.270Z</time>
      </trkpt>
      <trkpt lat="34.220151" lon="108.960008">
        <ele>430</ele>
        <time>2026-01-01T13:05:40.429Z</time>
      </trkpt>
      <trkpt lat="34.220159" lon="108.96005">
        <ele>430</ele>
        <time>2026-01-01T13:05:41.893Z</time>
      </trkpt>
      <trkpt lat="34.220175" lon="108.960088">
        <ele>430</ele>
        <time>2026-01-01T13:05:43.323Z</time>
      </trkpt>
      <trkpt lat="34.220201" lon="108.960116">
        <ele>430</ele>
        <time>2026-01-01T13:05:44.712Z</time>
      </trkpt>
      <trkpt lat="34.22028" lon="108.960162">
        <ele>430</ele>
        <time>2026-01-01T13:05:48.211Z</time>
      </trkpt>
      <trkpt lat="34.220349" lon="108.960187">
        <ele>430</ele>
        <time>2026-01-01T13:05:51.091Z</time>
      </trkpt>
      <trkpt lat="34.22035" lon="108.960374">
        <ele>430</ele>
        <time>2026-01-01T13:05:57.261Z</time>
      </trkpt>
      <trkpt lat="34.220358" lon="108.960397">
        <ele>430</ele>
        <time>2026-01-01T13:05:58.081Z</time>
      </trkpt>
      <trkpt lat="34.220373" lon="108.960414">
        <ele>430</ele>
        <time>2026-01-01T13:05:58.898Z</time>
      </trkpt>
      <trkpt lat="34.220402" lon="108.960424">
        <ele>429.75</ele>
        <time>2026-01-01T13:06:00.121Z</time>
      </trkpt>
      <trkpt lat="34.22049" lon="108.960422">
        <ele>429.75</ele>
        <time>2026-01-01T13:06:03.692Z</time>
      </trkpt>
      <trkpt lat="34.220812" lon="108.960416">
        <ele>430</ele>
        <time>2026-01-01T13:06:16.758Z</time>
      </trkpt>
      <trkpt lat="34.221009" lon="108.960391">
        <ele>429.25</ele>
        <time>2026-01-01T13:06:24.075Z</time>
      </trkpt>
      <trkpt lat="34.221065" lon="108.960382">
        <ele>429</ele>
        <time>2026-01-01T13:06:25.961Z</time>
      </trkpt>
      <trkpt lat="34.221114" lon="108.960378">
        <ele>428.75</ele>
        <time>2026-01-01T13:06:27.601Z</time>
      </trkpt>
      <trkpt lat="34.221239" lon="108.960378">
        <ele>428.25</ele>
        <time>2026-01-01T13:06:31.786Z</time>
      </trkpt>
      <trkpt lat="34.221403" lon="108.960378">
        <ele>427.75</ele>
        <time>2026-01-01T13:06:37.294Z</time>
      </trkpt>
      <trkpt lat="34.221418" lon="108.960378">
        <ele>427.5</ele>
        <time>2026-01-01T13:06:37.811Z</time>
      </trkpt>
      <trkpt lat="34.22155" lon="108.960378">
        <ele>427</ele>
        <time>2026-01-01T13:06:42.361Z</time>
      </trkpt>
      <trkpt lat="34.221566" lon="108.960378">
        <ele>427</ele>
        <time>2026-01-01T13:06:42.930Z</time>
      </trkpt>
      <trkpt lat="34.221687" lon="108.960378">
        <ele>426.5</ele>
        <time>2026-01-01T13:06:47.284Z</time>
      </trkpt>
      <trkpt lat="34.221805" lon="108.960378">
        <ele>426.5</ele>
        <time>2026-01-01T13:06:51.564Z</time>
      </trkpt>
      <trkpt lat="34.221906" lon="108.960378">
        <ele>426.5</ele>
        <time>2026-01-01T13:06:55.317Z</time>
      </trkpt>
      <trkpt lat="34.221923" lon="108.960378">
        <ele>426.5</ele>
        <time>2026-01-01T13:06:55.967Z</time>
      </trkpt>
      <trkpt lat="34.222045" lon="108.960378">
        <ele>426.25</ele>
        <time>2026-01-01T13:07:00.635Z</time>
      </trkpt>
      <trkpt lat="34.22206" lon="108.960378">
        <ele>426.25</ele>
        <time>2026-01-01T13:07:01.225Z</time>
      </trkpt>
      <trkpt lat="34.222075" lon="108.960378">
        <ele>426.25</ele>
        <time>2026-01-01T13:07:01.815Z</time>
      </trkpt>
      <trkpt lat="34.222178" lon="108.960378">
        <ele>426.25</ele>
        <time>2026-01-01T13:07:05.868Z</time>
      </trkpt>
      <trkpt lat="34.222197" lon="108.960378">
        <ele>426.25</ele>
        <time>2026-01-01T13:07:06.605Z</time>
      </trkpt>
      <trkpt lat="34.222315" lon="108.960378">
        <ele>426</ele>
        <time>2026-01-01T13:07:11.182Z</time>
      </trkpt>
      <trkpt lat="34.222338" lon="108.960378">
        <ele>426</ele>
        <time>2026-01-01T13:07:12.047Z</time>
      </trkpt>
      <trkpt lat="34.222433" lon="108.960378">
        <ele>426</ele>
        <time>2026-01-01T13:07:15.622Z</time>
      </trkpt>
      <trkpt lat="34.22257" lon="108.960378">
        <ele>425.75</ele>
        <time>2026-01-01T13:07:20.787Z</time>
      </trkpt>
      <trkpt lat="34.22257" lon="108.960507">
        <ele>425.25</ele>
        <time>2026-01-01T13:07:24.715Z</time>
      </trkpt>
      <trkpt lat="34.22257" lon="108.960777">
        <ele>424.75</ele>
        <time>2026-01-01T13:07:32.913Z</time>
      </trkpt>
      <trkpt lat="34.22257" lon="108.961196">
        <ele>424.5</ele>
        <time>2026-01-01T13:07:45.907Z</time>
      </trkpt>
      <trkpt lat="34.22257" lon="108.96127">
        <ele>424.5</ele>
        <time>2026-01-01T13:07:48.143Z</time>
      </trkpt>
      <trkpt lat="34.222841" lon="108.961267">
        <ele>423.25</ele>
        <time>2026-01-01T13:07:57.983Z</time>
      </trkpt>
      <trkpt lat="34.222896" lon="108.961266">
        <ele>423</ele>
        <time>2026-01-01T13:07:59.848Z</time>
      </trkpt>
      <trkpt lat="34.222902" lon="108.961205">
        <ele>423</ele>
        <time>2026-01-01T13:08:01.570Z</time>
      </trkpt>
      <trkpt lat="34.222919" lon="108.961175">
        <ele>422.75</ele>
        <time>2026-01-01T13:08:02.589Z</time>
      </trkpt>
      <trkpt lat="34.222943" lon="108.961156">
        <ele>422.75</ele>
        <time>2026-01-01T13:08:03.538Z</time>
      </trkpt>
      <trkpt lat="34.222973" lon="108.961148">
        <ele>422.5</ele>
        <time>2026-01-01T13:08:04.555Z</time>
      </trkpt>
      <trkpt lat="34.223538" lon="108.961148">
        <ele>421.25</ele>
        <time>2026-01-01T13:08:24.817Z</time>
      </trkpt>
      <trkpt lat="34.223567" lon="108.961155">
        <ele>421.25</ele>
        <time>2026-01-01T13:08:25.973Z</time>
      </trkpt>
      <trkpt lat="34.223592" lon="108.961175">
        <ele>421.25</ele>
        <time>2026-01-01T13:08:27.261Z</time>
      </trkpt>
      <trkpt lat="34.223609" lon="108.961205">
        <ele>421.25</ele>
        <time>2026-01-01T13:08:28.554Z</time>
      </trkpt>
      <trkpt lat="34.223614" lon="108.96124">
        <ele>421.5</ele>
        <time>2026-01-01T13:08:29.816Z</time>
      </trkpt>
      <trkpt lat="34.223615" lon="108.961257">
        <ele>421.5</ele>
        <time>2026-01-01T13:08:30.421Z</time>
      </trkpt>
      <trkpt lat="34.223615" lon="108.961359">
        <ele>421.5</ele>
        <time>2026-01-01T13:08:34.047Z</time>
      </trkpt>
      <trkpt lat="34.223772" lon="108.961357">
        <ele>421.75</ele>
        <time>2026-01-01T13:08:40.859Z</time>
      </trkpt>
      <trkpt lat="34.224042" lon="108.961354">
        <ele>422.25</ele>
        <time>2026-01-01T13:08:52.618Z</time>
      </trkpt>
      <trkpt lat="34.224158" lon="108.961346">
        <ele>422.5</ele>
        <time>2026-01-01T13:08:57.604Z</time>
      </trkpt>
      <trkpt lat="34.224273" lon="108.961325">
        <ele>422.5</ele>
        <time>2026-01-01T13:09:02.467Z</time>
      </trkpt>
      <trkpt lat="34.224385" lon="108.96129">
        <ele>422.5</ele>
        <time>2026-01-01T13:09:07.160Z</time>
      </trkpt>
      <trkpt lat="34.224494" lon="108.961242">
        <ele>422.25</ele>
        <time>2026-01-01T13:09:11.724Z</time>
      </trkpt>
      <trkpt lat="34.224594" lon="108.961192">
        <ele>422.25</ele>
        <time>2026-01-01T13:09:15.852Z</time>
      </trkpt>
      <trkpt lat="34.224536" lon="108.961">
        <ele>421.75</ele>
        <time>2026-01-01T13:09:22.403Z</time>
      </trkpt>
      <trkpt lat="34.224501" lon="108.960857">
        <ele>421.5</ele>
        <time>2026-01-01T13:09:27.142Z</time>
      </trkpt>
      <trkpt lat="34.224471" lon="108.960714">
        <ele>421.75</ele>
        <time>2026-01-01T13:09:32.091Z</time>
      </trkpt>
      <trkpt lat="34.224431" lon="108.960436">
        <ele>422.25</ele>
        <time>2026-01-01T13:09:41.683Z</time>
      </trkpt>
      <trkpt lat="34.224417" lon="108.960193">
        <ele>422.5</ele>
        <time>2026-01-01T13:09:50.509Z</time>
      </trkpt>
      <trkpt lat="34.224417" lon="108.95958">
        <ele>422.5</ele>
        <time>2026-01-01T13:10:11.809Z</time>
      </trkpt>
      <trkpt lat="34.224497" lon="108.959494">
        <ele>422.5</ele>
        <time>2026-01-01T13:10:16.151Z</time>
      </trkpt>
      <trkpt lat="34.224573" lon="108.95945">
        <ele>422.5</ele>
        <time>2026-01-01T13:10:19.569Z</time>
      </trkpt>
      <trkpt lat="34.224646" lon="108.959432">
        <ele>422.5</ele>
        <time>2026-01-01T13:10:22.591Z</time>
      </trkpt>
      <trkpt lat="34.226968" lon="108.959374">
        <ele>420.25</ele>
        <time>2026-01-01T13:11:53.149Z</time>
      </trkpt>
      <trkpt lat="34.22811" lon="108.959348">
        <ele>421.5</ele>
        <time>2026-01-01T13:12:38.892Z</time>
      </trkpt>
      <trkpt lat="34.228191" lon="108.959349">
        <ele>421.75</ele>
        <time>2026-01-01T13:12:42.347Z</time>
      </trkpt>
      <trkpt lat="34.228274" lon="108.959347">
        <ele>421.75</ele>
        <time>2026-01-01T13:12:45.944Z</time>
      </trkpt>
      <trkpt lat="34.229638" lon="108.959334">
        <ele>421.75</ele>
        <time>2026-01-01T13:13:41.696Z</time>
      </trkpt>
      <trkpt lat="34.230057" lon="108.959326">
        <ele>422.5</ele>
        <time>2026-01-01T13:13:59.020Z</time>
      </trkpt>
      <trkpt lat="34.230573" lon="108.959316">
        <ele>423.25</ele>
        <time>2026-01-01T13:14:21.459Z</time>
      </trkpt>
      <trkpt lat="34.230893" lon="108.95931">
        <ele>423.25</ele>
        <time>2026-01-01T13:14:34.967Z</time>
      </trkpt>
      <trkpt lat="34.231083" lon="108.959297">
        <ele>422.5</ele>
        <time>2026-01-01T13:14:42.124Z</time>
      </trkpt>
      <trkpt lat="34.231152" lon="108.959292">
        <ele>422</ele>
        <time>2026-01-01T13:14:44.580Z</time>
      </trkpt>
      <trkpt lat="34.231215" lon="108.9593">
        <ele>421.75</ele>
        <time>2026-01-01T13:14:46.831Z</time>
      </trkpt>
      <trkpt lat="34.231316" lon="108.95938">
        <ele>422</ele>
        <time>2026-01-01T13:14:51.121Z</time>
      </trkpt>
      <trkpt lat="34.231826" lon="108.959401">
        <ele>420.75</ele>
        <time>2026-01-01T13:15:09.429Z</time>
      </trkpt>
      <trkpt lat="34.231891" lon="108.959312">
        <ele>420.5</ele>
        <time>2026-01-01T13:15:13.080Z</time>
      </trkpt>
      <trkpt lat="34.23192" lon="108.959277">
        <ele>420.25</ele>
        <time>2026-01-01T13:15:14.678Z</time>
      </trkpt>
      <trkpt lat="34.231987" lon="108.959245">
        <ele>420.25</ele>
        <time>2026-01-01T13:15:17.488Z</time>
      </trkpt>
      <trkpt lat="34.232066" lon="108.959227">
        <ele>420.5</ele>
        <time>2026-01-01T13:15:20.624Z</time>
      </trkpt>
      <trkpt lat="34.232914" lon="108.95921">
        <ele>420.5</ele>
        <time>2026-01-01T13:15:54.696Z</time>
      </trkpt>
      <trkpt lat="34.233299" lon="108.959203">
        <ele>419</ele>
        <time>2026-01-01T13:16:09.467Z</time>
      </trkpt>
      <trkpt lat="34.234921" lon="108.959171">
        <ele>418.75</ele>
        <time>2026-01-01T13:17:12.712Z</time>
      </trkpt>
      <trkpt lat="34.237134" lon="108.959128">
        <ele>418.25</ele>
        <time>2026-01-01T13:18:41.725Z</time>
      </trkpt>
      <trkpt lat="34.23792" lon="108.959113">
        <ele>417.25</ele>
        <time>2026-01-01T13:19:12.903Z</time>
      </trkpt>
      <trkpt lat="34.237972" lon="108.959124">
        <ele>417.25</ele>
        <time>2026-01-01T13:19:14.930Z</time>
      </trkpt>
      <trkpt lat="34.238456" lon="108.959112">
        <ele>417</ele>
        <time>2026-01-01T13:19:34.161Z</time>
      </trkpt>
      <trkpt lat="34.23866" lon="108.959073">
        <ele>417.5</ele>
        <time>2026-01-01T13:19:42.677Z</time>
      </trkpt>
      <trkpt lat="34.238968" lon="108.959064">
        <ele>418.25</ele>
        <time>2026-01-01T13:19:56.521Z</time>
      </trkpt>
      <trkpt lat="34.239793" lon="108.959046">
        <ele>418</ele>
        <time>2026-01-01T13:20:30.664Z</time>
      </trkpt>
      <trkpt lat="34.241185" lon="108.959003">
        <ele>419.5</ele>
        <time>2026-01-01T13:21:28.592Z</time>
      </trkpt>
      <trkpt lat="34.241697" lon="108.959045">
        <ele>419.25</ele>
        <time>2026-01-01T13:21:50.027Z</time>
      </trkpt>
      <trkpt lat="34.242596" lon="108.959043">
        <ele>417.5</ele>
        <time>2026-01-01T13:22:24.193Z</time>
      </trkpt>
      <trkpt lat="34.242683" lon="108.959042">
        <ele>417.25</ele>
        <time>2026-01-01T13:22:27.400Z</time>
      </trkpt>
      <trkpt lat="34.242804" lon="108.959041">
        <ele>417</ele>
        <time>2026-01-01T13:22:31.795Z</time>
      </trkpt>
      <trkpt lat="34.242913" lon="108.95904">
        <ele>416.75</ele>
        <time>2026-01-01T13:22:35.815Z</time>
      </trkpt>
      <trkpt lat="34.243207" lon="108.95903">
        <ele>416.25</ele>
        <time>2026-01-01T13:22:46.738Z</time>
      </trkpt>
      <trkpt lat="34.24325" lon="108.959008">
        <ele>416.25</ele>
        <time>2026-01-01T13:22:48.491Z</time>
      </trkpt>
      <trkpt lat="34.244" lon="108.959008">
        <ele>415.5</ele>
        <time>2026-01-01T13:23:17.359Z</time>
      </trkpt>
      <trkpt lat="34.244099" lon="108.958989">
        <ele>415.5</ele>
        <time>2026-01-01T13:23:21.251Z</time>
      </trkpt>
      <trkpt lat="34.244285" lon="108.958933">
        <ele>415.25</ele>
        <time>2026-01-01T13:23:28.729Z</time>
      </trkpt>
      <trkpt lat="34.247581" lon="108.958857">
        <ele>414</ele>
        <time>2026-01-01T13:25:39.974Z</time>
      </trkpt>
      <trkpt lat="34.250871" lon="108.958769">
        <ele>415</ele>
        <time>2026-01-01T13:27:53.269Z</time>
      </trkpt>
      <trkpt lat="34.251062" lon="108.958797">
        <ele>415</ele>
        <time>2026-01-01T13:28:01.176Z</time>
      </trkpt>
      <trkpt lat="34.252425" lon="108.958752">
        <ele>414.5</ele>
        <time>2026-01-01T13:28:55.700Z</time>
      </trkpt>
      <trkpt lat="34.252425" lon="108.958664">
        <ele>414</ele>
        <time>2026-01-01T13:28:58.523Z</time>
      </trkpt>
      <trkpt lat="34.252668" lon="108.958661">
        <ele>413.75</ele>
        <time>2026-01-01T13:29:07.162Z</time>
      </trkpt>
      <trkpt lat="34.252797" lon="108.958664">
        <ele>413.25</ele>
        <time>2026-01-01T13:29:11.749Z</time>
      </trkpt>
      <trkpt lat="34.253269" lon="108.958653">
        <ele>412.25</ele>
        <time>2026-01-01T13:29:28.823Z</time>
      </trkpt>
      <trkpt lat="34.2534" lon="108.958663">
        <ele>412.25</ele>
        <time>2026-01-01T13:29:34.009Z</time>
      </trkpt>
      <trkpt lat="34.253516" lon="108.958665">
        <ele>412.5</ele>
        <time>2026-01-01T13:29:38.936Z</time>
      </trkpt>
      <trkpt lat="34.253658" lon="108.958662">
        <ele>412.75</ele>
        <time>2026-01-01T13:29:44.967Z</time>
      </trkpt>
      <trkpt lat="34.253748" lon="108.958659">
        <ele>412.75</ele>
        <time>2026-01-01T13:29:48.790Z</time>
      </trkpt>
      <trkpt lat="34.254642" lon="108.958629">
        <ele>414.75</ele>
        <time>2026-01-01T13:30:28.325Z</time>
      </trkpt>
      <trkpt lat="34.25492" lon="108.958604">
        <ele>415.75</ele>
        <time>2026-01-01T13:30:40.914Z</time>
      </trkpt>
      <trkpt lat="34.255714" lon="108.958585">
        <ele>415</ele>
        <time>2026-01-01T13:31:13.474Z</time>
      </trkpt>
      <trkpt lat="34.255714" lon="108.958507">
        <ele>415</ele>
        <time>2026-01-01T13:31:15.994Z</time>
      </trkpt>
      <trkpt lat="34.255714" lon="108.958429">
        <ele>415</ele>
        <time>2026-01-01T13:31:18.609Z</time>
      </trkpt>
      <trkpt lat="34.255722" lon="108.956694">
        <ele>415.75</ele>
        <time>2026-01-01T13:32:18.049Z</time>
      </trkpt>
      <trkpt lat="34.256212" lon="108.956704">
        <ele>415</ele>
        <time>2026-01-01T13:32:37.933Z</time>
      </trkpt>
      <trkpt lat="34.256312" lon="108.956701">
        <ele>414.75</ele>
        <time>2026-01-01T13:32:41.684Z</time>
      </trkpt>
      <trkpt lat="34.256734" lon="108.956627">
        <ele>414</ele>
        <time>2026-01-01T13:32:57.521Z</time>
      </trkpt>
      <trkpt lat="34.257026" lon="108.956546">
        <ele>414</ele>
        <time>2026-01-01T13:33:09.113Z</time>
      </trkpt>
      <trkpt lat="34.257587" lon="108.956386">
        <ele>413.75</ele>
        <time>2026-01-01T13:33:32.199Z</time>
      </trkpt>
      <trkpt lat="34.257682" lon="108.956359">
        <ele>413.75</ele>
        <time>2026-01-01T13:33:36.092Z</time>
      </trkpt>
      <trkpt lat="34.258219" lon="108.956248">
        <ele>413</ele>
        <time>2026-01-01T13:33:57.039Z</time>
      </trkpt>
      <trkpt lat="34.258819" lon="108.956097">
        <ele>413.25</ele>
        <time>2026-01-01T13:34:21.422Z</time>
      </trkpt>
      <trkpt lat="34.259422" lon="108.95593">
        <ele>413.75</ele>
        <time>2026-01-01T13:34:47.207Z</time>
      </trkpt>
      <trkpt lat="34.259983" lon="108.955823">
        <ele>413</ele>
        <time>2026-01-01T13:35:10.032Z</time>
      </trkpt>
      <trkpt lat="34.260076" lon="108.955839">
        <ele>412.5</ele>
        <time>2026-01-01T13:35:13.522Z</time>
      </trkpt>
      <trkpt lat="34.260996" lon="108.955842">
        <ele>409</ele>
        <time>2026-01-01T13:35:44.493Z</time>
      </trkpt>
      <trkpt lat="34.261046" lon="108.955838">
        <ele>409.25</ele>
        <time>2026-01-01T13:35:46.293Z</time>
      </trkpt>
      <trkpt lat="34.261141" lon="108.95584">
        <ele>409.25</ele>
        <time>2026-01-01T13:35:50.507Z</time>
      </trkpt>
      <trkpt lat="34.261234" lon="108.955845">
        <ele>409.5</ele>
        <time>2026-01-01T13:35:54.636Z</time>
      </trkpt>
      <trkpt lat="34.261292" lon="108.951698">
        <ele>415</ele>
        <time>2026-01-01T13:38:23.883Z</time>
      </trkpt>
      <trkpt lat="34.261292" lon="108.951332">
        <ele>413.5</ele>
        <time>2026-01-01T13:38:36.664Z</time>
      </trkpt>
      <trkpt lat="34.261292" lon="108.951255">
        <ele>413</ele>
        <time>2026-01-01T13:38:38.658Z</time>
      </trkpt>
      <trkpt lat="34.261283" lon="108.949587">
        <ele>412.25</ele>
        <time>2026-01-01T13:39:30.655Z</time>
      </trkpt>
      <trkpt lat="34.261282" lon="108.949502">
        <ele>412.25</ele>
        <time>2026-01-01T13:39:33.447Z</time>
      </trkpt>
      <trkpt lat="34.261279" lon="108.949407">
        <ele>412.25</ele>
        <time>2026-01-01T13:39:36.635Z</time>
      </trkpt>
      <trkpt lat="34.261276" lon="108.94926">
        <ele>412.25</ele>
        <time>2026-01-01T13:39:41.566Z</time>
      </trkpt>
      <trkpt lat="34.261261" lon="108.948896">
        <ele>412.25</ele>
        <time>2026-01-01T13:39:53.787Z</time>
      </trkpt>
      <trkpt lat="34.261236" lon="108.947613">
        <ele>413.5</ele>
        <time>2026-01-01T13:40:38.450Z</time>
      </trkpt>
      <trkpt lat="34.261187" lon="108.947292">
        <ele>414.5</ele>
        <time>2026-01-01T13:40:50.222Z</time>
      </trkpt>
      <trkpt lat="34.261179" lon="108.946531">
        <ele>415.75</ele>
        <time>2026-01-01T13:41:18.568Z</time>
      </trkpt>
      <trkpt lat="34.261158" lon="108.94548">
        <ele>416</ele>
        <time>2026-01-01T13:41:55.405Z</time>
      </trkpt>
      <trkpt lat="34.261106" lon="108.944016">
        <ele>415.5</ele>
        <time>2026-01-01T13:42:44.278Z</time>
      </trkpt>
      <trkpt lat="34.261095" lon="108.943344">
        <ele>413.25</ele>
        <time>2026-01-01T13:43:05.249Z</time>
      </trkpt>
      <trkpt lat="34.261101" lon="108.943259">
        <ele>413</ele>
        <time>2026-01-01T13:43:07.562Z</time>
      </trkpt>
      <trkpt lat="34.261134" lon="108.943094">
        <ele>412.25</ele>
        <time>2026-01-01T13:43:12.154Z</time>
      </trkpt>
      <trkpt lat="34.261165" lon="108.943006">
        <ele>411.75</ele>
        <time>2026-01-01T13:43:14.779Z</time>
      </trkpt>
      <trkpt lat="34.261205" lon="108.942923">
        <ele>411.5</ele>
        <time>2026-01-01T13:43:17.398Z</time>
      </trkpt>
      <trkpt lat="34.261252" lon="108.942846">
        <ele>411</ele>
        <time>2026-01-01T13:43:20.056Z</time>
      </trkpt>
      <trkpt lat="34.261292" lon="108.942814">
        <ele>411</ele>
        <time>2026-01-01T13:43:21.667Z</time>
      </trkpt>
      <trkpt lat="34.261363" lon="108.942738">
        <ele>410.75</ele>
        <time>2026-01-01T13:43:24.893Z</time>
      </trkpt>
      <trkpt lat="34.261421" lon="108.942647">
        <ele>410.25</ele>
        <time>2026-01-01T13:43:28.174Z</time>
      </trkpt>
      <trkpt lat="34.261518" lon="108.942543">
        <ele>410</ele>
        <time>2026-01-01T13:43:32.829Z</time>
      </trkpt>
      <trkpt lat="34.261632" lon="108.94247">
        <ele>409.75</ele>
        <time>2026-01-01T13:43:37.627Z</time>
      </trkpt>
      <trkpt lat="34.261743" lon="108.942433">
        <ele>409.75</ele>
        <time>2026-01-01T13:43:42.177Z</time>
      </trkpt>
      <trkpt lat="34.261857" lon="108.942424">
        <ele>410</ele>
        <time>2026-01-01T13:43:46.889Z</time>
      </trkpt>
      <trkpt lat="34.262019" lon="108.942542">
        <ele>410.5</ele>
        <time>2026-01-01T13:43:54.875Z</time>
      </trkpt>
      <trkpt lat="34.262307" lon="108.942546">
        <ele>410.75</ele>
        <time>2026-01-01T13:44:07.342Z</time>
      </trkpt>
      <trkpt lat="34.262307" lon="108.942702">
        <ele>411</ele>
        <time>2026-01-01T13:44:12.653Z</time>
      </trkpt>
      <trkpt lat="34.261988" lon="108.942696">
        <ele>410.75</ele>
        <time>2026-01-01T13:44:25.795Z</time>
      </trkpt>
      <trkpt lat="34.261835" lon="108.942693">
        <ele>410.5</ele>
        <time>2026-01-01T13:44:31.842Z</time>
      </trkpt>
      <trkpt lat="34.261692" lon="108.942852">
        <ele>410.25</ele>
        <time>2026-01-01T13:44:39.300Z</time>
      </trkpt>
      <trkpt lat="34.261643" lon="108.942789">
        <ele>410.25</ele>
        <time>2026-01-01T13:44:42.097Z</time>
      </trkpt>
      <trkpt lat="34.261803" lon="108.942624">
        <ele>410.25</ele>
        <time>2026-01-01T13:44:50.291Z</time>
      </trkpt>
      <trkpt lat="34.261804" lon="108.942349">
        <ele>410</ele>
        <time>2026-01-01T13:44:59.309Z</time>
      </trkpt>
      <trkpt lat="34.261362" lon="108.942343">
        <ele>410</ele>
        <time>2026-01-01T13:45:17.014Z</time>
      </trkpt>
      <trkpt lat="34.261192" lon="108.942341">
        <ele>410</ele>
        <time>2026-01-01T13:45:23.912Z</time>
      </trkpt>
    </trkseg>
  </trk>
</gpx>
